STARLINK-31415          
1 59419U 24064X   26068.37960646 -.00003527  00000+0 -11880-3 0  9996
2 59419  43.0031  58.3276 0001616 276.0398  84.0269 15.27551982109173
PELICAN-6               
1 66703U 25276AP  26068.70709364  .00077979  00000+0  29726-2 0  9998
2 66703  97.4276 144.2072 0003569 157.8575 202.2819 15.26377980 15334
